GLOBALSTAR M063         
1 26081U 00008A   24255.83366691 -.00000128  00000+0 -65925-3 0  9997
2 26081  51.9946 124.6491 0004931 129.1167 337.6539 11.86157021124548
GLOBALSTAR M062         
1 26082U 00008B   24255.62166928 -.00000042  00000+0  40403-3 0  9994
2 26082  51.9836 194.9470 0006582 239.2360 292.4705 12.43445502461967
GLOBALSTAR M060         
1 26083U 00008C   24256.05801227 -.00000038  00000+0  52722-3 0  9993
2 26083  52.0004 114.3245 0002553 288.4947 237.4097 12.17641122118660
GLOBALSTAR M064         
1 26084U 00008D   24255.94112191 -.00000050  00000+0  47805-3 0  9996
2 26084  52.0006 226.4751 0001166 250.7542 109.3165 11.88522709134018
GLOBALSTAR M065         
1 31571U 07020A   24255.77091060 -.00000024  00000+0  44413-3 0  9999
2 31571  51.9923 353.6605 0010349  53.0556  84.5050 12.61974923798254
GLOBALSTAR M069         
1 31573U 07020C   24255.68560035 -.00000032  00000+0  41226-3 0  9992
2 31573  51.9960 309.7572 0000445 186.4215 325.6512 12.58764437799370
GLOBALSTAR M072         
1 31574U 07020D   24255.71392714 -.00000065  00000+0  21673-3 0  9994
2 31574  52.0099  45.5678 0001156  99.9206 273.3369 12.62263562797652
GLOBALSTAR M071         
1 31576U 07020F   24255.42721843 -.00000032  00000+0  40052-3 0  9999
2 31576  52.0083 315.6590 0000852 209.5918 163.2591 12.62288171460533
